OBJECT_NAME,OBJECT_ID,EPOCH,MEAN_MOTION,ECCENTRICITY,INCLINATION,RA_OF_ASC_NODE,ARG_OF_PERICENTER,MEAN_ANOMALY,EPHEMERIS_TYPE,CLASSIFICATION_TYPE,NORAD_CAT_ID,ELEMENT_SET_NO,REV_AT_EPOCH,BSTAR,MEAN_MOTION_DOT,MEAN_MOTION_DDOT
LEMUR-2-ROUNDTRIPPER,2025-009DG,2026-06-15T11:55:22.215360,15.03769461,.000517,97.7260,249.1780,135.6979,224.4661,0,U,62711,999,7737,.56528E-3,.7706E-4,0
LEMUR-2-MYNAMEISJEFF,2025-009DH,2026-06-15T11:53:05.418240,15.03776954,.000339,97.7307,249.5566,156.9406,203.1972,0,U,62712,999,7737,.5243E-3,.7143E-4,0
LEMUR-2-LEIA-PHILIP,2025-052AN,2026-06-15T03:09:38.251872,14.97315872,.00023607,97.6845,58.1173,215.8850,144.2214,0,U,63246,999,6836,.10706896E-3,.1184E-4,0
LEMUR-2-LIA-MARTIN,2025-052AQ,2026-06-15T06:30:16.155648,14.97792782,.0002792,97.6908,58.7269,158.6068,201.5271,0,U,63248,999,6839,.27618E-3,.3186E-4,0
LEMUR-2-DELOITTE-1,2025-052BB,2026-06-15T12:20:45.562272,14.97591992,.0003321,97.6923,59.2948,100.7227,259.4369,0,U,63259,999,6844,.33803E-3,.3892E-4,0
LEMUR-2-EMERSONROSE,2025-052BD,2026-06-15T10:11:15.427104,14.99069017,.0001833,97.6893,59.7622,66.9977,293.1439,0,U,63261,999,6847,.2507E-3,.2984E-4,0
LEMUR-2-MARACHE-FRAN,2025-052BE,2026-06-15T03:13:14.317536,15.00085585,.0005584,97.6952,59.7875,30.3529,329.8017,0,U,63262,999,6845,.4157987E-3,.5125E-4,0
LEMUR-2-THEFALCONER,2025-052BG,2026-06-15T06:33:29.137824,14.97379567,.0002916,97.6876,58.6807,39.5797,320.5638,0,U,63264,999,6840,.2066E-3,.2343E-4,0
LEMUR-2-UNTITLED-SC,2025-061A,2026-06-15T10:27:34.867008,15.13465431,.0016919,97.5631,141.8102,271.3325,88.5968,0,U,63351,999,6732,.19058E-3,.3352E-4,0
LEMUR-2-ESPERANZA,2025-061B,2026-06-15T13:05:12.909120,15.13560711,.0016544,97.5641,142.0122,270.1738,89.7597,0,U,63352,999,6734,.24085E-3,.4265E-4,0
LEMUR-2-KREMPEL-BRO2,2025-061C,2026-06-15T12:09:33.931008,15.13996367,.0017421,97.5687,142.5049,261.9607,97.9648,0,U,63353,999,6735,.1945E-3,.3475E-4,0
LEMUR-2-THERMORAPTOR,2025-061D,2026-06-15T10:08:42.265824,15.14074362,.0017182,97.5691,142.4968,261.1258,98.8028,0,U,63354,999,6734,.22651E-3,.4067E-4,0
LEMUR-2-NEUROSPICY,2025-061E,2026-06-15T11:03:16.115616,15.14191206,.0014977,97.5619,142.1621,264.9974,94.9548,0,U,63355,999,6735,.21046E-3,.3784E-4,0
LEMUR-2-TILLINFINITY,2025-061F,2026-06-15T11:55:00.369984,15.14776146,.0016298,97.5602,142.4869,251.5895,108.3565,0,U,63356,999,6738,.21731E-3,.3976E-4,0
LEMUR-2-KREMPEL-BRO1,2025-061G,2026-06-15T11:16:29.600256,15.14582537,.0016922,97.5606,142.3770,253.0464,106.8913,0,U,63357,999,6737,.22516E-3,.4101E-4,0
LEMUR-2-LANGER2SPACE,2025-061H,2026-06-15T10:19:00.634080,15.14277501,.0014893,97.5609,142.1519,263.2026,96.7512,0,U,63358,999,6735,.20683E-3,.3726E-4,0
LEMUR-2-BALTO,2025-052BH,2026-06-15T12:27:29.339712,15.00071116,.0006914,97.6898,60.1474,62.4250,297.7675,0,U,63395,999,6851,.41707E-3,.514E-4,0
LEMUR-2-KRISH,2025-135AK,2026-06-15T06:26:52.478016,14.96191689,.0001731,97.7746,281.1577,102.3277,257.8138,0,U,64561,999,5363,.43663E-3,.4864E-4,0
LEMUR-2-HUBBLE-4,2025-135AP,2026-06-15T07:50:57.939072,14.93192580,.0001057,97.7697,280.2556,320.2391,39.8751,0,U,64565,999,5359,.15447E-3,.1557E-4,0
LEMUR-2-SEJONG-2,2025-135BL,2026-06-15T13:36:01.545984,14.96685849,.0003982,97.7690,281.5985,346.1196,13.9915,0,U,64586,999,5370,.28055E-3,.3144E-4,0
LEMUR-2-HUBBLE-5,2025-135BT,2026-06-15T13:12:15.018048,14.94132272,.0005227,97.7717,281.1073,0.1804,359.9417,0,U,64840,999,5366,.12689E-3,.13E-4,0
LEMUR-2-KARENDARRELL,2025-135BU,2026-06-15T07:36:43.807680,15.00087075,.0009545,97.7681,282.5279,209.3739,150.6949,0,U,64841,999,5373,.50283E-3,.6214E-4,0
LEMUR-2-LUCILLE-ROSE,2025-135BV,2026-06-15T13:23:09.686400,15.00138198,.0011047,97.7772,282.7857,288.9914,71.0112,0,U,65403,999,4839,.45565E-3,.5634E-4,0
LEMUR-2-AFFIE-WAUWIE,2025-248C,2026-06-15T03:48:26.154720,15.27089116,.00076165,45.3893,125.9769,70.2843,289.8867,0,U,66295,999,3428,.5463527E-3,.14524E-3,0
LEMUR-2-DEANANDMAEVE,2025-276N,2026-06-15T03:24:15.285312,15.19713195,.00059262,97.4218,239.6511,21.6090,338.5394,0,U,66678,999,3010,.31212441E-3,.6603E-4,0
LEMUR-2-STAS-GORBUK,2025-276W,2026-06-15T03:44:27.789216,15.19361958,.00052453,97.4253,239.7201,21.7605,338.3851,0,U,66686,999,3010,.24412457E-3,.5096E-4,0
LEMUR-2-TEODOR,2025-276DG,2026-06-15T03:24:18.832032,15.21032247,.0002099,97.4156,239.9399,117.6264,242.5185,0,U,66768,999,3013,.26244423E-3,.5757E-4,0
LEMUR-2-LAILA,2025-276DQ,2026-06-15T12:15:29.697696,15.21256092,.0002125,97.4179,240.4229,138.0534,222.0864,0,U,66776,999,3019,.22558E-3,.4971E-4,0
LEMUR-2-CELIJO-SB-PK,2025-276DW,2026-06-15T04:02:54.757248,14.99960172,.00088759,97.5265,237.0118,137.4697,222.7216,0,U,66781,999,2232,.46115214E-3,.5677E-4,0
LEMUR-2-FINNIAN,2025-276DX,2026-06-15T11:30:43.786080,15.00358876,.0008851,97.5285,237.5250,94.4902,265.7333,0,U,66782,999,1974,.46026E-3,.5726E-4,0
