LEMUR-2-ROUNDTRIPPER    
1 62711U 25009DG  26166.49678490  .00007706  00000+0  56528-3 0  9999
2 62711  97.7260 249.1780 0005170 135.6979 224.4661 15.03769461 77375
LEMUR-2-MYNAMEISJEFF    
1 62712U 25009DH  26166.49520160  .00007143  00000+0  52430-3 0  9993
2 62712  97.7307 249.5566 0003390 156.9406 203.1972 15.03776954 77371
LEMUR-2-LEIA-PHILIP     
1 63246U 25052AN  26166.13169273  .00001184  00000+0  10707-3 0  9999
2 63246  97.6845  58.1173 0002360 215.8850 144.2214 14.97315872 68365
LEMUR-2-LIA-MARTIN      
1 63248U 25052AQ  26166.27102032  .00003186  00000+0  27618-3 0  9999
2 63248  97.6908  58.7269 0002792 158.6068 201.5271 14.97792782 68395
LEMUR-2-DELOITTE-1      
1 63259U 25052BB  26166.51441623  .00003892  00000+0  33803-3 0  9997
2 63259  97.6923  59.2948 0003321 100.7227 259.4369 14.97591992 68444
LEMUR-2-EMERSONROSE     
1 63261U 25052BD  26166.42448411  .00002984  00000+0  25070-3 0  9990
2 63261  97.6893  59.7622 0001833  66.9977 293.1439 14.99069017 68474
LEMUR-2-MARACHE-FRAN    
1 63262U 25052BE  26166.13419349  .00005125  00000+0  41580-3 0  9991
2 63262  97.6952  59.7875 0005584  30.3529 329.8017 15.00085585 68454
LEMUR-2-THEFALCONER     
1 63264U 25052BG  26166.27325391  .00002343  00000+0  20660-3 0  9996
2 63264  97.6876  58.6807 0002916  39.5797 320.5638 14.97379567 68401
LEMUR-2-UNTITLED-SC     
1 63351U 25061A   26166.43582022  .00003352  00000+0  19058-3 0  9997
2 63351  97.5631 141.8102 0016919 271.3325  88.5968 15.13465431 67322
LEMUR-2-ESPERANZA       
1 63352U 25061B   26166.54528830  .00004265  00000+0  24085-3 0  9997
2 63352  97.5641 142.0122 0016544 270.1738  89.7597 15.13560711 67348
LEMUR-2-KREMPEL-BRO2    
1 63353U 25061C   26166.50664272  .00003475  00000+0  19450-3 0  9997
2 63353  97.5687 142.5049 0017421 261.9607  97.9648 15.13996367 67359
LEMUR-2-THERMORAPTOR    
1 63354U 25061D   26166.42271141  .00004067  00000+0  22651-3 0  9993
2 63354  97.5691 142.4968 0017182 261.1258  98.8028 15.14074362 67346
LEMUR-2-NEUROSPICY      
1 63355U 25061E   26166.46060319  .00003784  00000+0  21046-3 0  9993
2 63355  97.5619 142.1621 0014977 264.9974  94.9548 15.14191206 67357
LEMUR-2-TILLINFINITY    
1 63356U 25061F   26166.49653206  .00003976  00000+0  21731-3 0  9994
2 63356  97.5602 142.4869 0016298 251.5895 108.3565 15.14776146 67383
LEMUR-2-KREMPEL-BRO1    
1 63357U 25061G   26166.46978704  .00004101  00000+0  22516-3 0  9998
2 63357  97.5606 142.3770 0016922 253.0464 106.8913 15.14582537 67379
LEMUR-2-LANGER2SPACE    
1 63358U 25061H   26166.42986845  .00003726  00000+0  20683-3 0  9995
2 63358  97.5609 142.1519 0014893 263.2026  96.7512 15.14277501 67356
LEMUR-2-BALTO           
1 63395U 25052BH  26166.51908958  .00005140  00000+0  41707-3 0  9997
2 63395  97.6898  60.1474 0006914  62.4250 297.7675 15.00071116 68511
LEMUR-2-KRISH           
1 64561U 25135AK  26166.26866294  .00004864  00000+0  43663-3 0  9998
2 64561  97.7746 281.1577 0001731 102.3277 257.8138 14.96191689 53634
LEMUR-2-HUBBLE-4        
1 64565U 25135AP  26166.32705948  .00001557  00000+0  15447-3 0  9992
2 64565  97.7697 280.2556 0001057 320.2391  39.8751 14.93192580 53591
LEMUR-2-SEJONG-2        
1 64586U 25135BL  26166.56668456  .00003144  00000+0  28055-3 0  9996
2 64586  97.7690 281.5985 0003982 346.1196  13.9915 14.96685849 53702
LEMUR-2-HUBBLE-5        
1 64840U 25135BT  26166.55017382  .00001300  00000+0  12689-3 0  9992
2 64840  97.7717 281.1073 0005227   0.1804 359.9417 14.94132272 53666
LEMUR-2-KARENDARRELL    
1 64841U 25135BU  26166.31717370  .00006214  00000+0  50283-3 0  9992
2 64841  97.7681 282.5279 0009545 209.3739 150.6949 15.00087075 53739
LEMUR-2-LUCILLE-ROSE    
1 65403U 25135BV  26166.55775100  .00005634  00000+0  45565-3 0  9990
2 65403  97.7772 282.7857 0011047 288.9914  71.0112 15.00138198 48394
LEMUR-2-AFFIE-WAUWIE    
1 66295U 25248C   26166.15863605  .00014524  00000+0  54635-3 0  9995
2 66295  45.3893 125.9769 0007616  70.2843 289.8867 15.27089116 34280
LEMUR-2-DEANANDMAEVE    
1 66678U 25276N   26166.14184358  .00006603  00000+0  31212-3 0  9996
2 66678  97.4218 239.6511 0005926  21.6090 338.5394 15.19713195 30104
LEMUR-2-STAS-GORBUK     
1 66686U 25276W   26166.15587719  .00005096  00000+0  24412-3 0  9993
2 66686  97.4253 239.7201 0005245  21.7605 338.3851 15.19361958 30108
LEMUR-2-TEODOR          
1 66768U 25276DG  26166.14188463  .00005757  00000+0  26244-3 0  9995
2 66768  97.4156 239.9399 0002099 117.6264 242.5185 15.21032247 30139
LEMUR-2-LAILA           
1 66776U 25276DQ  26166.51076039  .00004971  00000+0  22558-3 0  9991
2 66776  97.4179 240.4229 0002125 138.0534 222.0864 15.21256092 30198
LEMUR-2-CELIJO-SB-PK    
1 66781U 25276DW  26166.16868932  .00005677  00000+0  46115-3 0  9998
2 66781  97.5265 237.0118 0008875 137.4697 222.7216 14.99960172 22320
LEMUR-2-FINNIAN         
1 66782U 25276DX  26166.47967345  .00005726  00000+0  46026-3 0  9997
2 66782  97.5285 237.5250 0008851  94.4902 265.7333 15.00358876 19744
